*******************************************************************************
Ephemeris / PORT_LOGIN Sun Nov 27 10:13:43 2011 Pasadena, USA    / Horizons    
*******************************************************************************
Target body name: Ananke (512)                    {source: JUP282}
Center body name: Solar System Barycenter (0)     {source: DE405}
Center-site name: BODY CENTER
*******************************************************************************
Start time      : A.D. 2001-Jan-01 10:00:00.0000 CT 
Stop  time      : A.D. 2001-Jan-02 00:00:00.0000 CT 
Step-size       : 60 minutes
*******************************************************************************
Center geodetic : 0.00000000,0.00000000,0.0000000 {E-lon(deg),Lat(deg),Alt(km)}
Center cylindric: 0.00000000,0.00000000,0.0000000 {E-lon(deg),Dxy(km),Dz(km)}
Center radii    : (undefined)                                                  
Output units    : AU-D                                                         
Output format   : 03
Reference frame : ICRF/J2000.0                                                 
Output type     : GEOMETRIC cartesian states
Coordinate systm: Earth Mean Equator and Equinox of Reference Epoch            
*******************************************************************************
JDCT 
   X     Y     Z
   VX    VY    VZ
   LT    RG    RR
*******************************************************************************
$$SOE
2451910.916666667 = A.D. 2001-Jan-01 10:00:00.0000 (CT)
   1.643485042329270E+00  4.434225544850111E+00  1.791717016948049E+00
  -6.826265602006057E-03  3.776167092992474E-03  1.279494979337726E-03
   2.920702469374544E-02  5.057039562410258E+00  1.545964591457274E-03
2451910.958333333 = A.D. 2001-Jan-01 11:00:00.0000 (CT)
   1.643200618306153E+00  4.434382872152370E+00  1.791770327013529E+00
  -6.826087518319428E-03  3.775543405543751E-03  1.279388162841748E-03
   2.920739672105636E-02  5.057103976942356E+00  1.545932921777842E-03
2451911.000000000 = A.D. 2001-Jan-01 12:00:00.0000 (CT)
   1.642916201701855E+00  4.434540173466421E+00  1.791823632628217E+00
  -6.825909498643499E-03  3.774919659086022E-03  1.279281341333651E-03
   2.920776874072625E-02  5.057168390151451E+00  1.545901087367386E-03
2451911.041666667 = A.D. 2001-Jan-01 13:00:00.0000 (CT)
   1.642631792513710E+00  4.434697448789808E+00  1.791876933791904E+00
  -6.825731542951408E-03  3.774295853650016E-03  1.279174514814641E-03
   2.920814075271550E-02  5.057232802030683E+00  1.545869088287900E-03
2451911.083333333 = A.D. 2001-Jan-01 14:00:00.0000 (CT)
   1.642347390739054E+00  4.434854698120073E+00  1.791930230504382E+00
  -6.825553651216302E-03  3.773671989266419E-03  1.279067683285919E-03
   2.920851275698445E-02  5.057297212573189E+00  1.545836924601332E-03
2451911.125000000 = A.D. 2001-Jan-01 15:00:00.0000 (CT)
   1.642062996375221E+00  4.435011921454762E+00  1.791983522765441E+00
  -6.825375823411361E-03  3.773048065965876E-03  1.278960846748679E-03
   2.920888475349354E-02  5.057361621772114E+00  1.545804596369572E-03
2451911.166666667 = A.D. 2001-Jan-01 16:00:00.0000 (CT)
   1.641778609419549E+00  4.435169118791419E+00  1.792036810574875E+00
  -6.825198059509785E-03  3.772424083778983E-03  1.278854005204108E-03
   2.920925674220314E-02  5.057426029620602E+00  1.545772103654458E-03
2451911.208333333 = A.D. 2001-Jan-01 17:00:00.0000 (CT)
   1.641494229869375E+00  4.435326290127593E+00  1.792090093932472E+00
  -6.825020359484803E-03  3.771800042736297E-03  1.278747158653390E-03
   2.920962872307372E-02  5.057490436111802E+00  1.545739446517775E-03
2451911.250000000 = A.D. 2001-Jan-01 18:00:00.0000 (CT)
   1.641209857722038E+00  4.435483435460830E+00  1.792143372838026E+00
  -6.824842723309668E-03  3.771175942868330E-03  1.278640307097701E-03
   2.921000069606567E-02  5.057554841238862E+00  1.545706625021255E-03
2451911.291666667 = A.D. 2001-Jan-01 19:00:00.0000 (CT)
   1.640925492974879E+00  4.435640554788681E+00  1.792196647291328E+00
  -6.824665150957656E-03  3.770551784205557E-03  1.278533450538212E-03
   2.921037266113947E-02  5.057619244994937E+00  1.545673639226580E-03
2451911.333333333 = A.D. 2001-Jan-01 20:00:00.0000 (CT)
   1.640641135625239E+00  4.435797648108697E+00  1.792249917292168E+00
  -6.824487642402071E-03  3.769927566778406E-03  1.278426588976091E-03
   2.921074461825560E-02  5.057683647373184E+00  1.545640489195380E-03
2451911.375000000 = A.D. 2001-Jan-01 21:00:00.0000 (CT)
   1.640356785670460E+00  4.435954715418431E+00  1.792303182840339E+00
  -6.824310197616239E-03  3.769303290617273E-03  1.278319722412497E-03
   2.921111656737452E-02  5.057748048366758E+00  1.545607174989239E-03
2451911.416666667 = A.D. 2001-Jan-01 22:00:00.0000 (CT)
   1.640072443107886E+00  4.436111756715433E+00  1.792356443935633E+00
  -6.824132816573516E-03  3.768678955752506E-03  1.278212850848588E-03
   2.921148850845675E-02  5.057812447968820E+00  1.545573696669685E-03
2451911.458333333 = A.D. 2001-Jan-01 23:00:00.0000 (CT)
   1.639788107934861E+00  4.436268771997262E+00  1.792409700577841E+00
  -6.823955499247272E-03  3.768054562214423E-03  1.278105974285516E-03
   2.921186044146279E-02  5.057876846172535E+00  1.545540054298206E-03
2451911.500000000 = A.D. 2001-Jan-02 00:00:00.0000 (CT)
   1.639503780148731E+00  4.436425761261471E+00  1.792462952766754E+00
  -6.823778245610914E-03  3.767430110033298E-03  1.277999092724427E-03
   2.921223236635318E-02  5.057941242971067E+00  1.545506247936235E-03
$$EOE
*******************************************************************************
Coordinate system description:

  Earth Mean Equator and Equinox of Reference Epoch

    Reference epoch: J2000.0
    xy-plane: plane of the Earth's mean equator at the reference epoch
    x-axis  : out along ascending node of instantaneous plane of the Earth's
              orbit and the Earth's mean equator at the reference epoch
    z-axis  : along the Earth mean north pole at the reference epoch

Symbol meaning [1 AU=149597870.691 km, 1 day=86400.0 s]:

    JDCT     Epoch Julian Date, Coordinate Time
      X      x-component of position vector (AU)                               
      Y      y-component of position vector (AU)                               
      Z      z-component of position vector (AU)                               
      VX     x-component of velocity vector (AU/day)                           
      VY     y-component of velocity vector (AU/day)                           
      VZ     z-component of velocity vector (AU/day)                           
      LT     One-way down-leg Newtonian light-time (day)                       
      RG     Range; distance from coordinate center (AU)                       
      RR     Range-rate; radial velocity wrt coord. center (AU/day)            

Geometric states/elements have no aberration corrections applied.

 Computations by ...
     Solar System Dynamics Group, Horizons On-Line Ephemeris System
     4800 Oak Grove Drive, Jet Propulsion Laboratory
     Pasadena, CA  91109   USA
     Information: http://ssd.jpl.nasa.gov/
     Connect    : telnet://ssd.jpl.nasa.gov:6775  (via browser)
                  telnet ssd.jpl.nasa.gov 6775    (via command-line)
     Author     : Jon.Giorgini@jpl.nasa.gov
*******************************************************************************
